[{"OBJECT_NAME":"KUIPER-00249","OBJECT_ID":"2025-301X","EPOCH":"2026-03-09T05:18:48.483072","MEAN_MOTION":15.38089031,"ECCENTRICITY":0.0010501,"INCLINATION":51.8645,"RA_OF_ASC_NODE":67.547,"ARG_OF_PERICENTER":44.4239,"MEAN_ANOMALY":315.7589,"EPHEMERIS_TYPE":0,"CLASSIFICATION_TYPE":"U","NORAD_CAT_ID":67154,"ELEMENT_SET_NO":999,"REV_AT_EPOCH":1366,"BSTAR":0.00055185506,"MEAN_MOTION_DOT":0.0002071,"MEAN_MOTION_DDOT":0},{"OBJECT_NAME":"SPACEMOBILE-003 DEB","OBJECT_ID":"2024-163H","EPOCH":"2026-03-09T06:41:58.685280","MEAN_MOTION":15.36819258,"ECCENTRICITY":0.00083408,"INCLINATION":52.9732,"RA_OF_ASC_NODE":23.5908,"ARG_OF_PERICENTER":178.9597,"MEAN_ANOMALY":181.1423,"EPHEMERIS_TYPE":0,"CLASSIFICATION_TYPE":"U","NORAD_CAT_ID":62371,"ELEMENT_SET_NO":999,"REV_AT_EPOCH":7650,"BSTAR":0.00066898372,"MEAN_MOTION_DOT":0.00024141,"MEAN_MOTION_DDOT":0}]
